<?xml version="1.0" encoding="UTF-8"?>
<ndm xmlns:xsi="http://www.w3.org/2001/XMLSchema-instance" xsi:noNamespaceSchemaLocation="https://sanaregistry.org/r/ndmxml_unqualified/ndmxml-2.0.0-master-2.0.xsd">
<omm id="CCSDS_OMM_VERS" version="2.0">
<header><CREATION_DATE/><ORIGINATOR/></header><body><segment><metadata><OBJECT_NAME>KUIPER-00044</OBJECT_NAME><OBJECT_ID>2025-134F</OBJECT_ID><CENTER_NAME>EARTH</CENTER_NAME><REF_FRAME>TEME</REF_FRAME><TIME_SYSTEM>UTC</TIME_SYSTEM><MEAN_ELEMENT_THEORY>SGP4</MEAN_ELEMENT_THEORY></metadata><data><meanElements><EPOCH>2025-10-02T02:56:21.189408</EPOCH><MEAN_MOTION>14.79892273</MEAN_MOTION><ECCENTRICITY>.0014419</ECCENTRICITY><INCLINATION>51.8972</INCLINATION><RA_OF_ASC_NODE>227.7773</RA_OF_ASC_NODE><ARG_OF_PERICENTER>106.9728</ARG_OF_PERICENTER><MEAN_ANOMALY>253.2816</MEAN_ANOMALY></meanElements><tleParameters><EPHEMERIS_TYPE>0</EPHEMERIS_TYPE><CLASSIFICATION_TYPE>U</CLASSIFICATION_TYPE><NORAD_CAT_ID>64505</NORAD_CAT_ID><ELEMENT_SET_NO>999</ELEMENT_SET_NO><REV_AT_EPOCH>1640</REV_AT_EPOCH><BSTAR>-.43767E-2</BSTAR><MEAN_MOTION_DOT>-.33454E-3</MEAN_MOTION_DOT><MEAN_MOTION_DDOT>0</MEAN_MOTION_DDOT></tleParameters></data></segment></body></omm>
<omm id="CCSDS_OMM_VERS" version="2.0">
<header><CREATION_DATE/><ORIGINATOR/></header><body><segment><metadata><OBJECT_NAME>KUIPER-00046</OBJECT_NAME><OBJECT_ID>2025-134G</OBJECT_ID><CENTER_NAME>EARTH</CENTER_NAME><REF_FRAME>TEME</REF_FRAME><TIME_SYSTEM>UTC</TIME_SYSTEM><MEAN_ELEMENT_THEORY>SGP4</MEAN_ELEMENT_THEORY></metadata><data><meanElements><EPOCH>2025-10-02T02:50:27.657888</EPOCH><MEAN_MOTION>14.79395088</MEAN_MOTION><ECCENTRICITY>.0012716</ECCENTRICITY><INCLINATION>51.8975</INCLINATION><RA_OF_ASC_NODE>224.1816</RA_OF_ASC_NODE><ARG_OF_PERICENTER>118.0855</ARG_OF_PERICENTER><MEAN_ANOMALY>242.1394</MEAN_ANOMALY></meanElements><tleParameters><EPHEMERIS_TYPE>0</EPHEMERIS_TYPE><CLASSIFICATION_TYPE>U</CLASSIFICATION_TYPE><NORAD_CAT_ID>64506</NORAD_CAT_ID><ELEMENT_SET_NO>999</ELEMENT_SET_NO><REV_AT_EPOCH>1645</REV_AT_EPOCH><BSTAR>.15961E-2</BSTAR><MEAN_MOTION_DOT>.11826E-3</MEAN_MOTION_DOT><MEAN_MOTION_DDOT>0</MEAN_MOTION_DDOT></tleParameters></data></segment></body></omm>
<omm id="CCSDS_OMM_VERS" version="2.0">
<header><CREATION_DATE/><ORIGINATOR/></header><body><segment><metadata><OBJECT_NAME>KUIPER-00047</OBJECT_NAME><OBJECT_ID>2025-134H</OBJECT_ID><CENTER_NAME>EARTH</CENTER_NAME><REF_FRAME>TEME</REF_FRAME><TIME_SYSTEM>UTC</TIME_SYSTEM><MEAN_ELEMENT_THEORY>SGP4</MEAN_ELEMENT_THEORY></metadata><data><meanElements><EPOCH>2025-10-02T04:00:03.000096</EPOCH><MEAN_MOTION>15.30601727</MEAN_MOTION><ECCENTRICITY>.0011049</ECCENTRICITY><INCLINATION>51.8657</INCLINATION><RA_OF_ASC_NODE>205.9163</RA_OF_ASC_NODE><ARG_OF_PERICENTER>126.8856</ARG_OF_PERICENTER><MEAN_ANOMALY>69.6306</MEAN_ANOMALY></meanElements><tleParameters><EPHEMERIS_TYPE>0</EPHEMERIS_TYPE><CLASSIFICATION_TYPE>U</CLASSIFICATION_TYPE><NORAD_CAT_ID>64507</NORAD_CAT_ID><ELEMENT_SET_NO>999</ELEMENT_SET_NO><REV_AT_EPOCH>586</REV_AT_EPOCH><BSTAR>-.28647E-1</BSTAR><MEAN_MOTION_DOT>-.79951E-2</MEAN_MOTION_DOT><MEAN_MOTION_DDOT>0</MEAN_MOTION_DDOT></tleParameters></data></segment></body></omm>
<omm id="CCSDS_OMM_VERS" version="2.0">
<header><CREATION_DATE/><ORIGINATOR/></header><body><segment><metadata><OBJECT_NAME>KUIPER-00048</OBJECT_NAME><OBJECT_ID>2025-134J</OBJECT_ID><CENTER_NAME>EARTH</CENTER_NAME><REF_FRAME>TEME</REF_FRAME><TIME_SYSTEM>UTC</TIME_SYSTEM><MEAN_ELEMENT_THEORY>SGP4</MEAN_ELEMENT_THEORY></metadata><data><meanElements><EPOCH>2025-10-02T04:00:03.000096</EPOCH><MEAN_MOTION>15.30888774</MEAN_MOTION><ECCENTRICITY>.0003175</ECCENTRICITY><INCLINATION>51.8790</INCLINATION><RA_OF_ASC_NODE>204.5895</RA_OF_ASC_NODE><ARG_OF_PERICENTER>117.7092</ARG_OF_PERICENTER><MEAN_ANOMALY>95.6170</MEAN_ANOMALY></meanElements><tleParameters><EPHEMERIS_TYPE>0</EPHEMERIS_TYPE><CLASSIFICATION_TYPE>U</CLASSIFICATION_TYPE><NORAD_CAT_ID>64508</NORAD_CAT_ID><ELEMENT_SET_NO>999</ELEMENT_SET_NO><REV_AT_EPOCH>439</REV_AT_EPOCH><BSTAR>-.16968E-2</BSTAR><MEAN_MOTION_DOT>-.51408E-3</MEAN_MOTION_DOT><MEAN_MOTION_DDOT>0</MEAN_MOTION_DDOT></tleParameters></data></segment></body></omm>
<omm id="CCSDS_OMM_VERS" version="2.0">
<header><CREATION_DATE/><ORIGINATOR/></header><body><segment><metadata><OBJECT_NAME>KUIPER-00049</OBJECT_NAME><OBJECT_ID>2025-134K</OBJECT_ID><CENTER_NAME>EARTH</CENTER_NAME><REF_FRAME>TEME</REF_FRAME><TIME_SYSTEM>UTC</TIME_SYSTEM><MEAN_ELEMENT_THEORY>SGP4</MEAN_ELEMENT_THEORY></metadata><data><meanElements><EPOCH>2025-10-02T04:00:03.000096</EPOCH><MEAN_MOTION>14.93877486</MEAN_MOTION><ECCENTRICITY>.0006353</ECCENTRICITY><INCLINATION>51.9000</INCLINATION><RA_OF_ASC_NODE>210.5250</RA_OF_ASC_NODE><ARG_OF_PERICENTER>92.9116</ARG_OF_PERICENTER><MEAN_ANOMALY>120.4456</MEAN_ANOMALY></meanElements><tleParameters><EPHEMERIS_TYPE>0</EPHEMERIS_TYPE><CLASSIFICATION_TYPE>U</CLASSIFICATION_TYPE><NORAD_CAT_ID>64509</NORAD_CAT_ID><ELEMENT_SET_NO>999</ELEMENT_SET_NO><REV_AT_EPOCH>407</REV_AT_EPOCH><BSTAR>-.90813E-1</BSTAR><MEAN_MOTION_DOT>-.91207E-2</MEAN_MOTION_DOT><MEAN_MOTION_DDOT>0</MEAN_MOTION_DDOT></tleParameters></data></segment></body></omm>
<omm id="CCSDS_OMM_VERS" version="2.0">
<header><CREATION_DATE/><ORIGINATOR/></header><body><segment><metadata><OBJECT_NAME>KUIPER-00050</OBJECT_NAME><OBJECT_ID>2025-134L</OBJECT_ID><CENTER_NAME>EARTH</CENTER_NAME><REF_FRAME>TEME</REF_FRAME><TIME_SYSTEM>UTC</TIME_SYSTEM><MEAN_ELEMENT_THEORY>SGP4</MEAN_ELEMENT_THEORY></metadata><data><meanElements><EPOCH>2025-10-01T02:20:31.615296</EPOCH><MEAN_MOTION>14.95895347</MEAN_MOTION><ECCENTRICITY>.000644</ECCENTRICITY><INCLINATION>51.8878</INCLINATION><RA_OF_ASC_NODE>216.5212</RA_OF_ASC_NODE><ARG_OF_PERICENTER>131.8548</ARG_OF_PERICENTER><MEAN_ANOMALY>228.2972</MEAN_ANOMALY></meanElements><tleParameters><EPHEMERIS_TYPE>0</EPHEMERIS_TYPE><CLASSIFICATION_TYPE>U</CLASSIFICATION_TYPE><NORAD_CAT_ID>64510</NORAD_CAT_ID><ELEMENT_SET_NO>999</ELEMENT_SET_NO><REV_AT_EPOCH>1647</REV_AT_EPOCH><BSTAR>-.17091E-1</BSTAR><MEAN_MOTION_DOT>-.188448E-2</MEAN_MOTION_DOT><MEAN_MOTION_DDOT>0</MEAN_MOTION_DDOT></tleParameters></data></segment></body></omm>
<omm id="CCSDS_OMM_VERS" version="2.0">
<header><CREATION_DATE/><ORIGINATOR/></header><body><segment><metadata><OBJECT_NAME>KUIPER-00051</OBJECT_NAME><OBJECT_ID>2025-134M</OBJECT_ID><CENTER_NAME>EARTH</CENTER_NAME><REF_FRAME>TEME</REF_FRAME><TIME_SYSTEM>UTC</TIME_SYSTEM><MEAN_ELEMENT_THEORY>SGP4</MEAN_ELEMENT_THEORY></metadata><data><meanElements><EPOCH>2025-10-02T04:00:03.000096</EPOCH><MEAN_MOTION>15.02150848</MEAN_MOTION><ECCENTRICITY>.0005579</ECCENTRICITY><INCLINATION>51.8908</INCLINATION><RA_OF_ASC_NODE>208.9325</RA_OF_ASC_NODE><ARG_OF_PERICENTER>106.2296</ARG_OF_PERICENTER><MEAN_ANOMALY>72.6019</MEAN_ANOMALY></meanElements><tleParameters><EPHEMERIS_TYPE>0</EPHEMERIS_TYPE><CLASSIFICATION_TYPE>U</CLASSIFICATION_TYPE><NORAD_CAT_ID>64511</NORAD_CAT_ID><ELEMENT_SET_NO>999</ELEMENT_SET_NO><REV_AT_EPOCH>573</REV_AT_EPOCH><BSTAR>-.63528E-1</BSTAR><MEAN_MOTION_DOT>-.7903E-2</MEAN_MOTION_DOT><MEAN_MOTION_DDOT>0</MEAN_MOTION_DDOT></tleParameters></data></segment></body></omm>
<omm id="CCSDS_OMM_VERS" version="2.0">
<header><CREATION_DATE/><ORIGINATOR/></header><body><segment><metadata><OBJECT_NAME>KUIPER-00052</OBJECT_NAME><OBJECT_ID>2025-134N</OBJECT_ID><CENTER_NAME>EARTH</CENTER_NAME><REF_FRAME>TEME</REF_FRAME><TIME_SYSTEM>UTC</TIME_SYSTEM><MEAN_ELEMENT_THEORY>SGP4</MEAN_ELEMENT_THEORY></metadata><data><meanElements><EPOCH>2025-10-02T02:53:00.178080</EPOCH><MEAN_MOTION>15.59370963</MEAN_MOTION><ECCENTRICITY>.000795</ECCENTRICITY><INCLINATION>51.8714</INCLINATION><RA_OF_ASC_NODE>195.8196</RA_OF_ASC_NODE><ARG_OF_PERICENTER>131.0766</ARG_OF_PERICENTER><MEAN_ANOMALY>229.0918</MEAN_ANOMALY></meanElements><tleParameters><EPHEMERIS_TYPE>0</EPHEMERIS_TYPE><CLASSIFICATION_TYPE>U</CLASSIFICATION_TYPE><NORAD_CAT_ID>64512</NORAD_CAT_ID><ELEMENT_SET_NO>999</ELEMENT_SET_NO><REV_AT_EPOCH>1684</REV_AT_EPOCH><BSTAR>.24077E-2</BSTAR><MEAN_MOTION_DOT>.198267E-2</MEAN_MOTION_DOT><MEAN_MOTION_DDOT>0</MEAN_MOTION_DDOT></tleParameters></data></segment></body></omm>

</ndm>
