KUIPER-00044            
1 64505U 25134F   25275.12246747 -.00033454  00000+0 -43767-2 0  9998
2 64505  51.8972 227.7773 0014419 106.9728 253.2816 14.79892273 16401
KUIPER-00046            
1 64506U 25134G   25275.11837567  .00011826  00000+0  15961-2 0  9996
2 64506  51.8975 224.1816 0012716 118.0855 242.1394 14.79395088 16452
KUIPER-00047            
1 64507U 25134H   25275.16670139 -.00799510  00000+0 -28647-1 0  9991
2 64507  51.8657 205.9163 0011049 126.8856  69.6306 15.30601727  5864
KUIPER-00048            
1 64508U 25134J   25275.16670139 -.00051408  00000+0 -16968-2 0  9993
2 64508  51.8790 204.5895 0003175 117.7092  95.6170 15.30888774  4396
KUIPER-00049            
1 64509U 25134K   25275.16670139 -.00912070  00000+0 -90813-1 0  9995
2 64509  51.9000 210.5250 0006353  92.9116 120.4456 14.93877486  4071
KUIPER-00050            
1 64510U 25134L   25274.09758814 -.00188448  00000+0 -17091-1 0  9996
2 64510  51.8878 216.5212 0006440 131.8548 228.2972 14.95895347 16473
KUIPER-00051            
1 64511U 25134M   25275.16670139 -.00790300  00000+0 -63528-1 0  9991
2 64511  51.8908 208.9325 0005579 106.2296  72.6019 15.02150848  5735
KUIPER-00052            
1 64512U 25134N   25275.12014095  .00198267  00000+0  24077-2 0  9990
2 64512  51.8714 195.8196 0007950 131.0766 229.0918 15.59370963 16848
